SAUDISAT 2              
1 28371U 04025F   25334.84998218  .00000374  00000+0  94743-4 0  9992
2 28371  98.5414 324.8401 0024654 183.2839 176.8200 14.56506243136876
APRIZESAT 1             
1 28372U 04025G   25334.44785185  .00000393  00000+0  10893-3 0  9990
2 28372  98.6317 334.7699 0045562  40.6156 319.8422 14.51615186133074
ANIK F2                 
1 28378U 04027A   25334.62613110 -.00000028  00000+0  00000+0 0  9997
2 28378   2.7703  82.1322 0001452 130.5091 331.4122  1.00271092 39277
SHIJIAN-6 01A (SJ-6 01A)
1 28413U 04035A   25334.60283271  .00008253  00000+0  45183-3 0  9997
2 28413  97.6075 356.4551 0008332  99.9645 260.2527 15.14466770157379
SHIJIAN-6 01B (SJ-6 01B)
1 28414U 04035B   25334.87197825  .00005438  00000+0  38905-3 0  9992
2 28414  97.6182 350.3419 0006310  93.3281 266.8667 15.04836651156984
COSMOS 2408             
1 28419U 04037A   25334.78643720  .00000003  00000+0 -45445-4 0  9991
2 28419  82.4839  90.1617 0015441 346.2764  13.7895 12.45674247963206
COSMOS 2409             
1 28420U 04037B   25334.85069291  .00000026  00000+0  11132-3 0  9995
2 28420  82.4838  93.2633 0013231 357.9389   2.1635 12.45319084962866
AMC-15                  
1 28446U 04041A   25334.62734443 -.00000067  00000+0  00000+0 0  9995
2 28446   0.0516  69.0582 0002340 175.6144 305.8882  1.00271944 77315
