{
  "type": "FeatureCollection",
  "features": [
    {
      "type": "Feature",
      "properties": {
        "norad_id": 28371,
        "name": "SAUDISAT 2",
        "group": "active",
        "lat": NaN,
        "lon": NaN,
        "alt_km": NaN,
        "timestamp": "2025-12-01T03:08:33.207273+00:00",
        "meta": {
          "OBJECT_NAME": "SAUDISAT 2",
          "OBJECT_ID": "2004-025F",
          "EPOCH": "2025-11-30T20:23:58.460352",
          "MEAN_MOTION": 14.56506243,
          "ECCENTRICITY": 0.0024654,
          "INCLINATION": 98.5414,
          "RA_OF_ASC_NODE": 324.8401,
          "ARG_OF_PERICENTER": 183.2839,
          "MEAN_ANOMALY": 176.82,
          "EPHEMERIS_TYPE": 0,
          "CLASSIFICATION_TYPE": "U",
          "NORAD_CAT_ID": 28371,
          "ELEMENT_SET_NO": 999,
          "REV_AT_EPOCH": 13687,
          "BSTAR": 9.4743e-05,
          "MEAN_MOTION_DOT": 3.74e-06,
          "MEAN_MOTION_DDOT": 0
        }
      },
      "geometry": {
        "type": "Point",
        "coordinates": [
          NaN,
          NaN
        ]
      }
    },
    {
      "type": "Feature",
      "properties": {
        "norad_id": 28372,
        "name": "APRIZESAT 1",
        "group": "active",
        "lat": NaN,
        "lon": NaN,
        "alt_km": NaN,
        "timestamp": "2025-12-01T03:08:33.207278+00:00",
        "meta": {
          "OBJECT_NAME": "APRIZESAT 1",
          "OBJECT_ID": "2004-025G",
          "EPOCH": "2025-11-30T10:44:54.399840",
          "MEAN_MOTION": 14.51615186,
          "ECCENTRICITY": 0.00455625,
          "INCLINATION": 98.6317,
          "RA_OF_ASC_NODE": 334.7699,
          "ARG_OF_PERICENTER": 40.6156,
          "MEAN_ANOMALY": 319.8422,
          "EPHEMERIS_TYPE": 0,
          "CLASSIFICATION_TYPE": "U",
          "NORAD_CAT_ID": 28372,
          "ELEMENT_SET_NO": 999,
          "REV_AT_EPOCH": 13307,
          "BSTAR": 0.0001089301,
          "MEAN_MOTION_DOT": 3.93e-06,
          "MEAN_MOTION_DDOT": 0
        }
      },
      "geometry": {
        "type": "Point",
        "coordinates": [
          NaN,
          NaN
        ]
      }
    },
    {
      "type": "Feature",
      "properties": {
        "norad_id": 28378,
        "name": "ANIK F2",
        "group": "active",
        "lat": NaN,
        "lon": NaN,
        "alt_km": NaN,
        "timestamp": "2025-12-01T03:08:33.207284+00:00",
        "meta": {
          "OBJECT_NAME": "ANIK F2",
          "OBJECT_ID": "2004-027A",
          "EPOCH": "2025-11-30T15:01:37.727040",
          "MEAN_MOTION": 1.00271092,
          "ECCENTRICITY": 0.0001452,
          "INCLINATION": 2.7703,
          "RA_OF_ASC_NODE": 82.1322,
          "ARG_OF_PERICENTER": 130.5091,
          "MEAN_ANOMALY": 331.4122,
          "EPHEMERIS_TYPE": 0,
          "CLASSIFICATION_TYPE": "U",
          "NORAD_CAT_ID": 28378,
          "ELEMENT_SET_NO": 999,
          "REV_AT_EPOCH": 3927,
          "BSTAR": 0,
          "MEAN_MOTION_DOT": -2.8e-07,
          "MEAN_MOTION_DDOT": 0
        }
      },
      "geometry": {
        "type": "Point",
        "coordinates": [
          NaN,
          NaN
        ]
      }
    },
    {
      "type": "Feature",
      "properties": {
        "norad_id": 28413,
        "name": "SHIJIAN-6 01A (SJ-6 01A)",
        "group": "active",
        "lat": NaN,
        "lon": NaN,
        "alt_km": NaN,
        "timestamp": "2025-12-01T03:08:33.207719+00:00",
        "meta": {
          "OBJECT_NAME": "SHIJIAN-6 01A (SJ-6 01A)",
          "OBJECT_ID": "2004-035A",
          "EPOCH": "2025-11-30T14:28:04.746144",
          "MEAN_MOTION": 15.1446677,
          "ECCENTRICITY": 0.0008332,
          "INCLINATION": 97.6075,
          "RA_OF_ASC_NODE": 356.4551,
          "ARG_OF_PERICENTER": 99.9645,
          "MEAN_ANOMALY": 260.2527,
          "EPHEMERIS_TYPE": 0,
          "CLASSIFICATION_TYPE": "U",
          "NORAD_CAT_ID": 28413,
          "ELEMENT_SET_NO": 999,
          "REV_AT_EPOCH": 15737,
          "BSTAR": 0.00045183,
          "MEAN_MOTION_DOT": 8.253e-05,
          "MEAN_MOTION_DDOT": 0
        }
      },
      "geometry": {
        "type": "Point",
        "coordinates": [
          NaN,
          NaN
        ]
      }
    },
    {
      "type": "Feature",
      "properties": {
        "norad_id": 28414,
        "name": "SHIJIAN-6 01B (SJ-6 01B)",
        "group": "active",
        "lat": NaN,
        "lon": NaN,
        "alt_km": NaN,
        "timestamp": "2025-12-01T03:08:33.207725+00:00",
        "meta": {
          "OBJECT_NAME": "SHIJIAN-6 01B (SJ-6 01B)",
          "OBJECT_ID": "2004-035B",
          "EPOCH": "2025-11-30T20:55:38.920800",
          "MEAN_MOTION": 15.04836651,
          "ECCENTRICITY": 0.000631,
          "INCLINATION": 97.6182,
          "RA_OF_ASC_NODE": 350.3419,
          "ARG_OF_PERICENTER": 93.3281,
          "MEAN_ANOMALY": 266.8667,
          "EPHEMERIS_TYPE": 0,
          "CLASSIFICATION_TYPE": "U",
          "NORAD_CAT_ID": 28414,
          "ELEMENT_SET_NO": 999,
          "REV_AT_EPOCH": 15698,
          "BSTAR": 0.00038905,
          "MEAN_MOTION_DOT": 5.438e-05,
          "MEAN_MOTION_DDOT": 0
        }
      },
      "geometry": {
        "type": "Point",
        "coordinates": [
          NaN,
          NaN
        ]
      }
    },
    {
      "type": "Feature",
      "properties": {
        "norad_id": 28419,
        "name": "COSMOS 2408",
        "group": "active",
        "lat": NaN,
        "lon": NaN,
        "alt_km": NaN,
        "timestamp": "2025-12-01T03:08:33.207730+00:00",
        "meta": {
          "OBJECT_NAME": "COSMOS 2408",
          "OBJECT_ID": "2004-037A",
          "EPOCH": "2025-11-30T18:52:28.174080",
          "MEAN_MOTION": 12.45674247,
          "ECCENTRICITY": 0.0015441,
          "INCLINATION": 82.4839,
          "RA_OF_ASC_NODE": 90.1617,
          "ARG_OF_PERICENTER": 346.2764,
          "MEAN_ANOMALY": 13.7895,
          "EPHEMERIS_TYPE": 0,
          "CLASSIFICATION_TYPE": "U",
          "NORAD_CAT_ID": 28419,
          "ELEMENT_SET_NO": 999,
          "REV_AT_EPOCH": 96320,
          "BSTAR": -4.5445e-05,
          "MEAN_MOTION_DOT": 3e-08,
          "MEAN_MOTION_DDOT": 0
        }
      },
      "geometry": {
        "type": "Point",
        "coordinates": [
          NaN,
          NaN
        ]
      }
    },
    {
      "type": "Feature",
      "properties": {
        "norad_id": 28420,
        "name": "COSMOS 2409",
        "group": "active",
        "lat": NaN,
        "lon": NaN,
        "alt_km": NaN,
        "timestamp": "2025-12-01T03:08:33.207735+00:00",
        "meta": {
          "OBJECT_NAME": "COSMOS 2409",
          "OBJECT_ID": "2004-037B",
          "EPOCH": "2025-11-30T20:24:59.867424",
          "MEAN_MOTION": 12.45319084,
          "ECCENTRICITY": 0.0013231,
          "INCLINATION": 82.4838,
          "RA_OF_ASC_NODE": 93.2633,
          "ARG_OF_PERICENTER": 357.9389,
          "MEAN_ANOMALY": 2.1635,
          "EPHEMERIS_TYPE": 0,
          "CLASSIFICATION_TYPE": "U",
          "NORAD_CAT_ID": 28420,
          "ELEMENT_SET_NO": 999,
          "REV_AT_EPOCH": 96286,
          "BSTAR": 0.00011132,
          "MEAN_MOTION_DOT": 2.6e-07,
          "MEAN_MOTION_DDOT": 0
        }
      },
      "geometry": {
        "type": "Point",
        "coordinates": [
          NaN,
          NaN
        ]
      }
    },
    {
      "type": "Feature",
      "properties": {
        "norad_id": 28446,
        "name": "AMC-15",
        "group": "active",
        "lat": NaN,
        "lon": NaN,
        "alt_km": NaN,
        "timestamp": "2025-12-01T03:08:33.207741+00:00",
        "meta": {
          "OBJECT_NAME": "AMC-15",
          "OBJECT_ID": "2004-041A",
          "EPOCH": "2025-11-30T15:03:22.558752",
          "MEAN_MOTION": 1.00271944,
          "ECCENTRICITY": 0.000234,
          "INCLINATION": 0.0516,
          "RA_OF_ASC_NODE": 69.0582,
          "ARG_OF_PERICENTER": 175.6144,
          "MEAN_ANOMALY": 305.8882,
          "EPHEMERIS_TYPE": 0,
          "CLASSIFICATION_TYPE": "U",
          "NORAD_CAT_ID": 28446,
          "ELEMENT_SET_NO": 999,
          "REV_AT_EPOCH": 7731,
          "BSTAR": 0,
          "MEAN_MOTION_DOT": -6.7e-07,
          "MEAN_MOTION_DDOT": 0
        }
      },
      "geometry": {
        "type": "Point",
        "coordinates": [
          NaN,
          NaN
        ]
      }
    }
  ]
}